LEMUR-2-PETERG          
1 42841U 17042S   26068.48235713  .00023240  00000+0  81076-3 0  9993
2 42841  97.3980 253.6596 0003700 341.6938  18.4169 15.29611459473171
STARLINK-31515          
1 59476U 24068X   26068.30148034 -.00000652  00000+0 -14158-4 0  9993
2 59476  43.0066  36.6784 0001198 237.9446 122.1289 15.27574601108462
